[{"OBJECT_NAME":"STARLINK-30579","OBJECT_ID":"2023-158L","EPOCH":"2026-03-09T03:39:21.045888","MEAN_MOTION":15.26742207,"ECCENTRICITY":0.00019774,"INCLINATION":43.0056,"RA_OF_ASC_NODE":4.274,"ARG_OF_PERICENTER":261.2408,"MEAN_ANOMALY":98.822,"EPHEMERIS_TYPE":0,"CLASSIFICATION_TYPE":"U","NORAD_CAT_ID":58061,"ELEMENT_SET_NO":999,"REV_AT_EPOCH":13378,"BSTAR":0.00026756749,"MEAN_MOTION_DOT":6.924e-5,"MEAN_MOTION_DDOT":0},{"OBJECT_NAME":"TIANMU-1 11","OBJECT_ID":"2023-205A","EPOCH":"2026-03-10T00:04:04.804896","MEAN_MOTION":15.25886825,"ECCENTRICITY":0.00089558,"INCLINATION":97.3549,"RA_OF_ASC_NODE":92.1484,"ARG_OF_PERICENTER":7.2987,"MEAN_ANOMALY":352.838,"EPHEMERIS_TYPE":0,"CLASSIFICATION_TYPE":"U","NORAD_CAT_ID":58645,"ELEMENT_SET_NO":999,"REV_AT_EPOCH":12239,"BSTAR":0.00031315232,"MEAN_MOTION_DOT":7.963e-5,"MEAN_MOTION_DDOT":0}]
